[{"OBJECT_NAME":"SITRO-AIS 8 (ANOKHIN)","OBJECT_ID":"2023-091AD","EPOCH":"2026-03-09T23:44:40.058592","MEAN_MOTION":15.29359179,"ECCENTRICITY":0.0012509,"INCLINATION":97.5169,"RA_OF_ASC_NODE":133.2823,"ARG_OF_PERICENTER":92.0171,"MEAN_ANOMALY":268.2501,"EPHEMERIS_TYPE":0,"CLASSIFICATION_TYPE":"U","NORAD_CAT_ID":57193,"ELEMENT_SET_NO":999,"REV_AT_EPOCH":14927,"BSTAR":0.00064982524,"MEAN_MOTION_DOT":0.00018494,"MEAN_MOTION_DDOT":0},{"OBJECT_NAME":"STARLINK-35155","OBJECT_ID":"2025-225AB","EPOCH":"2026-03-09T13:03:26.449632","MEAN_MOTION":15.30184809,"ECCENTRICITY":0.00010015,"INCLINATION":53.158,"RA_OF_ASC_NODE":166.5057,"ARG_OF_PERICENTER":83.3005,"MEAN_ANOMALY":276.811,"EPHEMERIS_TYPE":0,"CLASSIFICATION_TYPE":"U","NORAD_CAT_ID":65935,"ELEMENT_SET_NO":999,"REV_AT_EPOCH":2349,"BSTAR":0.00097461125,"MEAN_MOTION_DOT":0.00028604,"MEAN_MOTION_DDOT":0}]
